[{"OBJECT_NAME":"YAOGAN-36 05C","OBJECT_ID":"2023-106E","EPOCH":"2026-03-09T23:02:42.692640","MEAN_MOTION":15.17284181,"ECCENTRICITY":0.00091151,"INCLINATION":34.9946,"RA_OF_ASC_NODE":339.3602,"ARG_OF_PERICENTER":188.1733,"MEAN_ANOMALY":171.8833,"EPHEMERIS_TYPE":0,"CLASSIFICATION_TYPE":"U","NORAD_CAT_ID":57456,"ELEMENT_SET_NO":999,"REV_AT_EPOCH":14578,"BSTAR":0.00035217341,"MEAN_MOTION_DOT":7.158e-5,"MEAN_MOTION_DDOT":0},{"OBJECT_NAME":"BRO-18","OBJECT_ID":"2025-135Y","EPOCH":"2026-03-09T22:42:21.749184","MEAN_MOTION":15.2098794,"ECCENTRICITY":0.00011227,"INCLINATION":97.4502,"RA_OF_ASC_NODE":184.8927,"ARG_OF_PERICENTER":149.5885,"MEAN_ANOMALY":210.5415,"EPHEMERIS_TYPE":0,"CLASSIFICATION_TYPE":"U","NORAD_CAT_ID":64550,"ELEMENT_SET_NO":999,"REV_AT_EPOCH":3978,"BSTAR":0.00031729541,"MEAN_MOTION_DOT":6.966e-5,"MEAN_MOTION_DDOT":0}]
